2009/06/01 17:56
KSFO 011756Z 28012KT 9SM FEW007 SCT012 BKN130 17/11 A2995 RMK AO2 SLP143 T01670111 10172 20122 51002